UNKNOWN                 
1 81864U          26016.16998432  .00002078  00000+0  81233-3 0  9990
2 81864  65.6730 346.3915 0765717 358.2266   1.6083 13.32513215555427
UNKNOWN                 
1 81865U          26017.40440890  .00001130  00000+0  92187-3 0  9997
2 81865  82.8060   1.1462 0060664 263.6563 249.3545 13.88132872613499
UNKNOWN                 
1 81893U          26014.42396901  .00000827  00000+0  88982-3 0  9990
2 81893 100.0500   4.5334 0020487 183.7705 176.3291 13.76776292608573
UNKNOWN                 
1 81899U          26016.12672235  .00000782  00000+0  19084-2 0  9998
2 81899 102.4126 129.1309 0180490 143.1942 218.1714 13.20300650583521
UNKNOWN                 
1 81921U          26011.22022129  .00001504  00000+0  63836-3 0  9999
2 81921  65.7098 346.2113 0844073 101.7865 267.9012 13.15244741 29664
UNKNOWN                 
1 81946U          26017.56786060  .00000533  00000+0  19010-2 0  9995
2 81946  66.4178  83.7362 0675116 333.9608  87.7622 12.42603007552334
UNKNOWN                 
1 81947U          26013.58129287  .00002390  00000+0  24239-3 0  9999
2 81947  66.0752  79.3228 0371884 122.7684 240.9834 14.53154030635649
UNKNOWN                 
1 81964U          26017.14172041  .00000175  00000+0  18559-3 0  9997
2 81964  66.5835 170.8618 0030177  57.1184 303.2794 13.95820118618986
UNKNOWN                 
1 81969U          26017.30253729  .00011388  00000+0  66312-3 0  9991
2 81969  86.6889 138.0026 0005824  58.1736 302.0070 15.11899491445541
UNKNOWN                 
1 81995U          26016.04787092  .00005077  00000+0  94809-3 0  9995
2 81995  65.7473  34.2317 0520080 280.1999  74.0837 14.04288574609040
UNKNOWN                 
1 82043U          26016.64044585  .00001050  00000+0  30041-3 0  9994
2 82043  97.9307 167.4193 0230457 338.7202  20.4517 14.32684468578848
UNKNOWN                 
1 82051U          26006.98630215  .00006656  00000+0  21791-2 0  9998
2 82051  98.7461  97.8569 0093487 185.3657 174.6535 14.36311709576030
UNKNOWN                 
1 82073U          26017.49333676  .00003278  00000+0  83465-3 0  9995
2 82073  97.7491  95.2128 0207326 178.3203 181.8730 14.39110827580265
UNKNOWN                 
1 82139U          26015.64157530  .00001380  00000+0  70582-3 0  9994
2 82139  99.0204  88.9226 0081691 305.9970  53.3648 14.15594581484910
UNKNOWN                 
1 82162U          26016.75803904  .00003715  00000+0  55321-2 0  9993
2 82162 100.4756 308.2627 0042765 139.6091 220.8231 13.53863387509048
UNKNOWN                 
1 82180U          26016.19058690  .00013568  00000+0  17634-2 0  9997
2 82180  65.6521 190.9005 0310946 199.5557 159.3404 14.52426121606752
UNKNOWN                 
1 82189U          26011.20045993  .00000369  00000+0  13775-3 0  9993
2 82189  74.0348 354.2937 0016529 183.4902 176.6138 14.35236453636642
UNKNOWN                 
1 82199U          26016.29027111  .00000459  00000+0  38514-3 0  9998
2 82199  82.9650 207.9062 0036980 298.5699 242.8682 13.85818483614474
UNKNOWN                 
1 82205U          26013.39051843  .00001784  00000+0  52370-3 0  9991
2 82205  63.0097 155.5121 0494757 296.2621  58.8386 13.93500534612413
UNKNOWN                 
1 82223U          26016.63517938  .00001623  00000+0  89297-3 0  9993
2 82223  99.3191 268.9482 0067359 249.2804 110.1137 14.12030265453717
UNKNOWN                 
1 82250U          26015.21979117  .00002265  00000+0  11849-2 0  9997
2 82250  98.9102 285.5685 0071657  94.8762  57.1457 14.14045251621363
UNKNOWN                 
1 82272U          26017.06207261 -.00000207  00000+0 -50479-3 0  9999
2 82272  67.5244 136.7661 0751852  83.5973 285.0021 12.33576524276296
UNKNOWN                 
1 82303U          26017.34286156  .00023813  00000+0  19549-1 0  9992
2 82303  81.9185 332.4251 0037833 286.0661 228.1635 13.88821706519368
UNKNOWN                 
1 82311U          26016.39927596  .00000548  00000+0  82971-3 0  9996
2 82311  99.4325  73.6577 0111038 219.5690 139.7304 13.54597816555012
UNKNOWN                 
1 82363U          26017.26157705  .00000645  00000+0  11086-2 0  9993
2 82363  66.9370 117.9015 0453409 143.0500 220.2703 13.15648855294936
UNKNOWN                 
1 82369U          26012.80389361  .00000051  00000+0  64170-4 0  9994
2 82369  98.8977  31.9356 0082761 252.6700 106.5399 13.98187235561519
UNKNOWN                 
1 82381U          26017.08600092  .00021820  00000+0  27099-2 0  9994
2 82381  98.3957 248.5368 0011030  25.3828 334.7923 14.82564672516046
UNKNOWN                 
1 82402U          26017.30535206  .00006347  00000+0  45652-3 0  9990
2 82402  86.6663 140.2434 0008770  46.0441 314.1516 15.04043088459813
UNKNOWN                 
1 82432U          26016.43276129  .00001229  00000+0  26452-3 0  9993
2 82432  74.0067 274.4084 0054449  69.8652 290.8360 14.58714109487968
UNKNOWN                 
1 82448U          26016.41858010  .00004304  00000+0  30739-3 0  9993
2 82448  85.8721 180.7963 0009962 130.2546 229.9561 15.04200917442250
UNKNOWN                 
1 82453U          26014.35766837 -.00000009  00000+0  27000-3 0  9991
2 82453 102.1826 335.7082 0093392 146.7951 213.9018 12.39704445550105
UNKNOWN                 
1 82458U          26017.47530757  .00003036  00000+0  13564-2 0  9993
2 82458  66.5133  90.3791 0055819 342.5748  17.3427 14.23186345615129
UNKNOWN                 
1 82484U          26016.50012723  .00000123  00000+0  23318-3 0  9996
2 82484  99.3533  41.3337 0045594 106.9728 253.6415 13.55813318595341
UNKNOWN                 
1 82494U          26017.53140500  .00017958  00000+0  19804-2 0  9994
2 82494  74.0083 310.4511 0002353  87.9842 272.1608 14.87471560 90285
UNKNOWN                 
1 82500U          26017.01775902  .00003580  00000+0  16322-2 0  9993
2 82500  70.9668 289.1757 0115367  61.1040 300.1600 14.18787304623955
UNKNOWN                 
1 82524U          26017.53341267  .00009627  00000+0  30319-2 0  9999
2 82524  73.2828 113.0902 0135934 240.3607 132.4307 14.35302319582170
UNKNOWN                 
1 82529U          26014.06471245  .00000242  00000+0  43388-3 0  9994
2 82529  99.7874 101.4403 0239438 161.9661 331.1755 13.41142817594076
UNKNOWN                 
1 82560U          26017.33547016  .00000969  00000+0  81593-3 0  9998
2 82560  99.9918 327.5288 0009300 214.5210 298.0582 13.90752550616813
UNKNOWN                 
1 82597U          26017.37476982  .00001488  00000+0  51322-3 0  9999
2 82597  66.7702  54.1506 0099670 282.4129  76.5833 14.35893064634098
UNKNOWN                 
1 82617U          26017.14021890  .00000568  00000+0  15429-3 0  9997
2 82617  74.0262 177.1894 0037462 112.5182 247.9950 14.49452695641956
UNKNOWN                 
1 82627U          26017.05326296  .00000868  00000+0  22465-2 0  9996
2 82627  82.4744 223.4486 0013342   2.3970 152.9241 13.16356607583478
UNKNOWN                 
1 82642U          26016.48428920  .00001285  00000+0  72749-3 0  9991
2 82642  98.9769 291.7951 0135542 138.9321 222.2147 14.07330205621029
UNKNOWN                 
1 82683U          26017.41036722  .00001004  00000+0  39387-3 0  9995
2 82683  98.1694  88.6820 0209273 291.5002  66.3981 14.20219108467334
UNKNOWN                 
1 82693U          26016.62512100  .00002081  00000+0  24223-2 0  9995
2 82693 100.5285 348.3454 0044150 300.6538  59.0256 13.69722113558539
UNKNOWN                 
1 82698U          26017.52913483  .00002203  00000+0  13165-2 0  9998
2 82698  61.6129  54.6255 0686910 302.9313  50.7405 13.29594128543139
UNKNOWN                 
1 82708U          26015.51453855  .00000830  00000+0  33198-2 0  9991
2 82708 102.1655 226.9433 0061990 220.7200 138.9248 12.90651927527870
UNKNOWN                 
1 82729U          26013.19588209  .00000934  00000+0  32244-2 0  9994
2 82729  67.9661  91.5066 0833787 349.2128   9.1904 12.17793327539032
UNKNOWN                 
1 82739U          26015.94319970  .00001056  00000+0  89720-3 0  9995
2 82739  99.0886 176.1178 0174070 201.6803 313.1552 13.82859074610836
UNKNOWN                 
1 82741U          26017.58866542  .00002050  00000+0  22193-2 0  9997
2 82741 102.8453  69.5701 0205924 186.7550 173.0794 13.66227336601972
UNKNOWN                 
1 82783U          26013.81486755  .00000826  00000+0  23865-2 0  9995
2 82783  90.3397  39.1954 0022790  30.5359 329.7090 13.09055741508555
UNKNOWN                 
1 82798U          26007.20488067  .00002504  00000+0  10990-2 0  9995
2 82798  82.9497 171.3804 0029350  94.9149  78.4119 14.23046412315998
UNKNOWN                 
1 82820U          26016.74819283  .00002579  00000+0  90793-3 0  9990
2 82820  99.7872 187.1470 0049653 274.4405  85.1105 14.35219687630651
UNKNOWN                 
1 82854U          26014.77203931  .00001021  00000+0  79130-3 0  9998
2 82854  82.6887  38.6906 0129642 186.6845 173.2595 13.87943592612385
UNKNOWN                 
1 82873U          26015.67510317  .00001902  00000+0  83497-3 0  9997
2 82873  99.9970 279.4947 0037279 189.8082 170.2369 14.24699805626065
UNKNOWN                 
1 82875U          26008.20079104  .00000511  00000+0  14601-3 0  9990
2 82875  98.6776 355.8998 0377481 206.9876 151.1221 14.15206121548216
UNKNOWN                 
1 82893U          26017.59194043  .00006961  00000+0  25897-2 0  9995
2 82893  98.9602 138.8489 0024089 291.2998  68.5613 14.32224281429104
UNKNOWN                 
1 82912U          26016.90485652  .00003359  00000+0  13824-2 0  9995
2 82912  65.8388  93.2313 0776086 252.9120  98.5557 13.27946494583990
UNKNOWN                 
1 82961U          26014.18399466  .00010659  00000+0  15746-1 0  9999
2 82961  99.8544 172.0207 0415741 285.1784  70.3726 13.24178156560007
UNKNOWN                 
1 82965U          26016.18626478  .00000777  00000+0  11043-2 0  9998
2 82965 100.1131 101.8328 0002340 178.1707 181.9440 13.60084620529139
